[{"OBJECT_NAME":"STARLINK-11165 [DTC]","OBJECT_ID":"2024-113E","EPOCH":"2026-03-09T13:40:15.262176","MEAN_MOTION":15.69702356,"ECCENTRICITY":0.0001087,"INCLINATION":53.158,"RA_OF_ASC_NODE":191.7082,"ARG_OF_PERICENTER":92.5557,"MEAN_ANOMALY":267.5585,"EPHEMERIS_TYPE":0,"CLASSIFICATION_TYPE":"U","NORAD_CAT_ID":60063,"ELEMENT_SET_NO":999,"REV_AT_EPOCH":9954,"BSTAR":1.1221e-5,"MEAN_MOTION_DOT":7.71e-6,"MEAN_MOTION_DDOT":0},{"OBJECT_NAME":"FLOCK 4BE-16","OBJECT_ID":"2024-149R","EPOCH":"2026-03-09T18:09:47.863872","MEAN_MOTION":15.69331853,"ECCENTRICITY":0.0006629,"INCLINATION":97.3709,"RA_OF_ASC_NODE":154.3606,"ARG_OF_PERICENTER":231.2674,"MEAN_ANOMALY":128.7996,"EPHEMERIS_TYPE":0,"CLASSIFICATION_TYPE":"U","NORAD_CAT_ID":60483,"ELEMENT_SET_NO":999,"REV_AT_EPOCH":8717,"BSTAR":0.0016709449,"MEAN_MOTION_DOT":0.00199478,"MEAN_MOTION_DDOT":0}]
